satname,norad_id,inclination_deg,eccentricity,mean_motion_rev_per_day,perigee_km,apogee_km,l1,l2
STARLINK-1231,45212,53.053,0.0003847,15.08575282,537.8910243993423,543.2142642116705,1 45212U 20012AL  25258.25244038  .00036711  00000+0  23290-2 0  9994,2 45212  53.0530  93.8200 0003847 144.6491 215.4755 15.08575282308637
STARLINK-1271,45217,53.0545,0.0001452,15.0640149,546.2014313591035,548.2125512541779,1 45217U 20012AR  25257.96673665  .00002134  00000+0  16208-3 0  9992,2 45217  53.0545  95.4687 0001452  87.7838 272.3317 15.06401490308630
STARLINK-1191,45222,53.0548,0.0001316,15.06397396,546.3081619142185,548.1309157552396,1 45222U 20012AW  25257.71056706  .00001159  00000+0  96706-4 0  9990,2 45222  53.0548  76.6187 0001316  93.6459 266.4681 15.06397396308872
STARLINK-1212,45223,53.0556,0.0001414,15.06396929,546.2417245099869,548.2002157439374,1 45223U 20012AX  25258.19350411  .00000603  00000+0  59406-4 0  9993,2 45223  53.0556  75.1064 0001414  92.7809 267.3342 15.06396929308941
STARLINK-1215,45225,53.0547,8.31e-05,15.06404454,546.6224117726251,547.7734024341853,1 45225U 20012AZ  25258.21553486  .00002433  00000+0  18214-3 0  9999,2 45225  53.0547  74.3512 0000831 101.7849 258.3234 15.06404454308908
STARLINK-1217,45226,53.0455,0.0002322,15.84811496,315.3009934330221,318.4101479828578,1 45226U 20012BA  25258.58341435  .00320932  00000+0  13050-2 0  9998,2 45226  53.0455  26.9139 0002322 167.5870  83.2011 15.84811496  6037
STARLINK-1221,45227,53.0705,0.0004131,15.34898943,458.3953395384897,464.04601685221587,1 45227U 20012BB  25258.57155831  .00014755  00000+0  43990-3 0  9991,2 45227  53.0705  15.0208 0004131 162.9553 197.1588 15.34898943309755
STARLINK-1222,45228,53.056,0.0001465,15.06446595,546.0542120120408,548.0832972981552,1 45228U 20012BC  25258.18234175 -.00011342  00000+0 -74276-3 0  9990,2 45228  53.0560  74.5008 0001465 101.0979 259.0174 15.06446595308834
STARLINK-1226,45229,53.0546,0.0001772,15.06403974,545.9722086211932,548.4265478336365,1 45229U 20012BD  25258.47724112  .00000407  00000+0  46190-4 0  9991,2 45229  53.0546  73.1759 0001772  94.5175 265.6017 15.06403974308880
STARLINK-1227,45230,53.0558,0.000135,15.06398527,546.2811498100209,548.1509951395883,1 45230U 20012BE  25258.20816360  .00000707  00000+0  66332-4 0  9994,2 45230  53.0558  74.3841 0001350  93.4251 266.6892 15.06398527308963
STARLINK-1238,45233,53.0384,6.64e-05,15.93314286,292.5726275490497,293.4585566132773,1 45233U 20012BH  25258.58341435  .00387255  69311-4  10731-2 0  9995,2 45233  53.0384  43.3511 0000664  52.2847 243.1396 15.93314286  5907
STARLINK-1246,45235,53.0544,0.0001371,15.06397268,546.2704647021937,548.1693975727103,1 45235U 20012BK  25258.02387274  .00001720  00000+0  13432-3 0  9994,2 45235  53.0544 115.2120 0001371  91.8003 268.3143 15.06397268308383
STARLINK-1247,45236,53.0412,1.25e-05,15.92291534,295.78851343904535,295.9553636625096,1 45236U 20012BL  25258.58341435  .00358845  60202-4  10498-2 0  9991,2 45236  53.0412  23.2780 0000125 212.8694  95.9449 15.92291534  6051
STARLINK-1270,45237,53.0548,0.000132,15.06402382,546.2901124149839,548.1184025069533,1 45237U 20012BM  25258.49198036  .00001324  00000+0  10776-3 0  9991,2 45237  53.0548  73.1105 0001320  91.5940 268.5201 15.06402382308993
STARLINK-1279,45360,53.0505,0.0001647,15.0639446,546.0879295884151,548.369144996399,1 45360U 20019A   25258.25147462  .00000649  00000+0  62498-4 0  9994,2 45360  53.0505 204.1897 0001647  87.2445 272.8733 15.06394460303698
STARLINK-1301,45361,53.0569,0.0001917,15.06495302,545.5919531039672,548.2470197608654,1 45361U 20019B   25258.57119656 -.00022477  00000+0 -14909-2 0  9991,2 45361  53.0569 212.7565 0001917 115.2159 244.9029 15.06495302303617
STARLINK-1306,45362,53.0505,0.0008483,15.54594056,397.5801943206834,409.0856361788956,1 45362U 20019C   25258.58341435  .00102083  00000+0  15038-2 0  9999,2 45362  53.0505 218.0940 0008483  57.8697   1.6506 15.54594056  5769
STARLINK-1262,45366,53.0528,0.00017,15.06372092,546.1197694634793,548.4744170551876,1 45366U 20019G   25258.40353790 -.00002292  00000+0 -13510-3 0  9998,2 45366  53.0528 233.5055 0001700  87.7158 272.4026 15.06372092303314
STARLINK-1273,45367,53.0542,2.79e-05,15.06390263,547.0481825442621,547.4346186590165,1 45367U 20019H   25258.22660208  .00000357  00000+0  42807-4 0  9994,2 45367  53.0542 234.3075 0000279  82.8911 277.2110 15.06390263303288
STARLINK-1276,45368,53.0544,0.0001352,15.06398668,546.2793326524707,548.1519480064144,1 45368U 20019J   25258.19710422  .00000452  00000+0  49225-4 0  9992,2 45368  53.0544 234.4367 0001352  85.5926 274.5217 15.06398668303280
STARLINK-1277,45369,53.0523,0.0001584,15.06409337,546.0859708471235,548.2799122045981,1 45369U 20019K   25257.32730116  .00002061  00000+0  15715-3 0  9993,2 45369  53.0523 238.9699 0001584  85.1650 274.9520 15.06409337303144
STARLINK-1281,45370,53.0542,0.0001344,15.0640545,546.2640899223334,548.1256191248294,1 45370U 20019L   25258.45144397  .00001208  00000+0  99993-4 0  9993,2 45370  53.0542 233.2944 0001344  84.2924 275.8218 15.06405450303322
STARLINK-1300,45374,53.0543,0.0001379,15.06393296,546.2770964093716,548.187113208478,1 45374U 20019Q   25258.40719923 -.00000905  00000+0 -41898-4 0  9991,2 45374  53.0543 233.4908 0001379  90.1277 269.9870 15.06393296303315
STARLINK-1302,45375,53.056,0.000122,15.06401816,546.3611003203769,548.0508840104649,1 45375U 20019R   25258.35559866  .00000570  00000+0  57180-4 0  9991,2 45375  53.0560 233.7263 0001220  74.7876 285.3248 15.06401816303308
STARLINK-1304,45376,53.0522,0.0001475,15.06409223,546.161806172945,548.2047756587644,1 45376U 20019S   25258.24132803  .00003396  00000+0  24668-3 0  9991,2 45376  53.0522 234.2404 0001475  95.2658 264.8499 15.06409223303285
STARLINK-1305,45377,53.0522,0.0001588,15.06393314,546.1323010360256,548.3317982461904,1 45377U 20019T   25258.33349378  .00002672  00000+0  19828-3 0  9997,2 45377  53.0522 233.8216 0001588  88.1165 272.0006 15.06393314303302
STARLINK-1319,45379,53.0531,0.0001498,15.06404322,546.1608964327434,548.2357268921178,1 45379U 20019V   25258.32611176  .00001666  00000+0  13068-3 0  9998,2 45379  53.0531 233.8583 0001498  88.2950 271.8211 15.06404322303301
STARLINK-1258,45381,53.045,0.0006374,15.96907427,278.7590183784505,287.2506419835645,1 45381U 20019X   25258.58341435  .00412970  80882-4  94041-3 0  9992,2 45381  53.0450 161.1864 0006374 125.8873 169.1169 15.96907427  6066
STARLINK-1266,45383,53.0535,0.0001534,15.06396447,546.1600972537253,548.2847975321865,1 45383U 20019Z   25258.59334717 -.00000605  00000+0 -21740-4 0  9996,2 45383  53.0535 212.6581 0001534  89.0411 271.0754 15.06396447303611
STARLINK-1267,45384,53.053,0.0001507,15.06401122,546.1644696625508,548.2517686814699,1 45384U 20019AA  25258.57868027  .00000827  00000+0  74438-4 0  9997,2 45384  53.0530 213.3800 0001507  90.8970 269.2191 15.06401122303609
STARLINK-1272,45386,53.0517,0.0001125,15.06369867,546.5248006801467,548.0830248855218,1 45386U 20019AC  25258.58597943  .00003586  00000+0  25974-3 0  9991,2 45386  53.0517 212.6899 0001125  81.5779 278.5338 15.06369867303612
STARLINK-1274,45387,53.035,0.000771,15.2416487,487.99643992021356,498.5921870055736,1 45387U 20019AD  25258.56397463  .00068202  00000+0  27521-2 0  9990,2 45387  53.0350 204.6239 0007710  46.4781 313.6855 15.24164870303720
STARLINK-1280,45388,53.0536,0.0001249,15.06397211,546.3551287322571,548.0850829372948,1 45388U 20019AE  25258.44406382  .00000526  00000+0  54186-4 0  9993,2 45388  53.0536 233.3293 0001249  84.1488 275.9643 15.06397211303306
STARLINK-1283,45389,53.0543,0.000131,15.06403243,546.2943992691462,548.1088379872272,1 45389U 20019AF  25258.29109890 -.00000709  00000+0 -28708-4 0  9997,2 45389  53.0543 214.0133 0001310  91.4785 268.6354 15.06403243303574
STARLINK-1284,45390,53.0532,0.0001598,15.06396459,546.1157381807225,548.3290830483547,1 45390U 20019AG  25258.59703085  .00000097  00000+0  25429-4 0  9993,2 45390  53.0532 212.6405 0001598  88.8896 271.2276 15.06396459303619
STARLINK-1292,45394,53.0494,0.0005019,15.70802901,353.2209344885441,359.9812645928632,1 45394U 20019AL  25258.58341435  .00141375  00000+0  11002-2 0  9998,2 45394  53.0494 187.5457 0005019 120.3367 292.8032 15.70802901  5909
STARLINK-1297,45395,53.0572,0.0001108,15.06402009,546.4380727114794,547.9727285874633,1 45395U 20019AM  25258.30215391 -.00000963  00000+0 -45755-4 0  9993,2 45395  53.0572 213.9626 0001108  76.9926 283.1186 15.06402009302751
STARLINK-1307,45397,53.0545,0.0001432,15.06396851,546.2294978909958,548.2129204821058,1 45397U 20019AP  25258.29478182  .00001455  00000+0  11658-3 0  9991,2 45397  53.0545 213.9951 0001432  89.0611 271.0542 15.06396851303390
STARLINK-1312,45398,53.0495,0.0011366,15.68490395,355.5568290522333,370.88127963496754,1 45398U 20019AQ  25258.58341435  .00207706  00000+0  17577-2 0  9996,2 45398  53.0495 186.8793 0011366  62.3458 255.7361 15.68490395  6009
STARLINK-1255,45399,53.0539,0.0001166,15.06407459,546.381204295597,547.996190248201,1 45399U 20019AR  25258.26254082  .00001615  00000+0  12725-3 0  9995,2 45399  53.0539 204.1436 0001166  91.1505 268.9618 15.06407459303515
STARLINK-1259,45403,53.0494,0.0010284,15.8036148,322.51956721842726,336.31566555341124,1 45403U 20019AV  25258.58341435  .00291313  00000+0  14599-2 0  9991,2 45403  53.0494 169.4053 0010284  68.2641  30.9404 15.80361480  6027
STARLINK-1260,45404,53.0548,0.0001471,15.06393467,546.2128589964932,548.250302432939,1 45404U 20019AW  25258.56109404  .00000620  00000+0  60507-4 0  9999,2 45404  53.0548 202.8032 0001471  90.6323 269.4835 15.06393467303464
STARLINK-1263,45405,53.0534,0.0001772,15.06359449,546.1086499130188,548.5630374888269,1 45405U 20019AX  25258.54636563  .00007681  00000+0  53454-3 0  9995,2 45405  53.0534 202.8673 0001772  82.3156 277.8035 15.06359449303464
